SIRION PATHFINDER-2     
1 43759U 18099B   26141.55395484  .00003764  00000+0  20909-3 0  9994
2 43759  97.4267 191.2470 0009620  41.9321 318.2646 15.14272291408596
CORVUS BC4              
1 43767U 18099K   26141.59077099  .00003119  00000+0  18390-3 0  9991
2 43767  97.4085 185.3519 0010105  94.0235 266.2151 15.12248212408388
M2 PATHFINDER           
1 45727U 20037E   26141.51175674  .00000931  00000+0  70978-4 0  9994
2 45727  97.8155 332.4456 0010056 238.9667 121.0572 15.04541732321480
NETSAT-4                
1 46504U 20068U   26140.95894731  .00012073  00000+0  27705-3 0  9990
2 46504  97.8616 147.0338 0007302  69.3171 290.8858 15.42862153311577
NETSAT-3                
1 46505U 20068V   26141.00886066  .00012570  00000+0  30031-3 0  9998
2 46505  97.8666 145.3392 0007366  82.1229 278.0853 15.41639965311497
NETSAT-1                
1 46506U 20068W   26141.46109015  .00009338  00000+0  28707-3 0  9996
2 46506  97.8754 140.4672 0006977 100.8529 259.3498 15.33913256311206
NETSAT-2                
1 46507U 20068X   26141.48758293  .00016128  00000+0  34677-3 0  9995
2 46507  97.8632 147.4068 0006208  91.2398 268.9560 15.44735783311612
GREENCUBE (IO-117)      
1 53109U 22080E   26141.41483570 -.00000003  00000+0  00000+0 0  9998
2 53109  70.1430 307.5592 0008838 295.9766  63.9983  6.42583336 90341
SITRO-AIS 5 (KATYS)     
1 57176U 23091L   26141.56705239  .00007887  00000+0  28430-3 0  9991
2 57176  97.5069 205.2252 0011567 188.3908 171.7140 15.28761139160279
SITRO-AIS 6 (CHIRKIN)   
1 57192U 23091AC  26141.55120334  .00006277  00000+0  25133-3 0  9994
2 57192  97.5076 204.4669 0011693 191.7407 168.3559 15.25359388160227
SITRO-AIS 8 (ANOKHIN)   
1 57193U 23091AD  26141.56425096  .00009488  00000+0  31566-3 0  9993
2 57193  97.5064 206.7054 0010874 183.8997 176.2161 15.31319210160374
SITRO-AIS 7 (FARTUSHNIY)
1 57194U 23091AE  26141.54901443  .00006101  00000+0  24656-3 0  9998
2 57194  97.5074 204.3033 0011504 192.7918 167.3029 15.25060467160217
